NORAD_CAT_ID,OBJECT_NAME,OBJECT_TYPE,EPOCH,MEAN_MOTION,ECCENTRICITY,INCLINATION,RA_OF_ASC_NODE,ARG_OF_PERICENTER,MEAN_ANOMALY,BSTAR,MEAN_MOTION_DOT,MEAN_MOTION_DDOT,TLE_LINE0,TLE_LINE1,TLE_LINE2,SEMIMAJOR_AXIS,PERIOD,APOGEE,PERIGEE,DECAYED
49139.0,STARLINK-3057,PAYLOAD,2023-01-07 04:43:46,14.98332323,0.0003011,70.0013,292.9120000000001,272.4385,87.64299999999999,-4.6424e-05,-6.47e-06,0.0,0 STARLINK-3057,1 49139U 21082K   23007.19706343 -.00000647  00000-0 -46424-4 0  9997,2 49139  70.0013 292.9120 0003011 272.4385  87.6430 14.98332323 73589,6950.186,96.107,574.143,569.9580000000002,0.0
49139.0,STARLINK-3057,PAYLOAD,2023-01-07 17:32:51,14.98327318,0.0002927,70.0017,291.5656,273.3035,86.7789,0.00015368,1.741e-05,0.0,0 STARLINK-3057,1 49139U 21082K   23007.73114846  .00001741  00000-0  15368-3 0  9994,2 49139  70.0017 291.5656 0002927 273.3035  86.7789 14.98327318 73663,6950.201,96.107,574.101,570.0319999999998,0.0
49139.0,STARLINK-3057,PAYLOAD,2023-01-08 04:45:47,14.9833194,0.0002967,70.0018,290.3872,273.0065,87.0755,0.00040725,4.77e-05,0.0,0 STARLINK-3057,1 49139U 21082K   23008.19846953  .00004770  00000-0  40725-3 0  9996,2 49139  70.0018 290.3872 0002967 273.0065  87.0755 14.98331940 73736,6950.187,96.107,574.114,569.99,0.0
49139.0,STARLINK-3057,PAYLOAD,2023-01-08 19:11:00,14.98341697,0.0002859,70.0017,288.8723,273.2266,86.8566,0.00053446,6.292e-05,0.0,0 STARLINK-3057,1 49139U 21082K   23008.79930650  .00006292  00000-0  53446-3 0  9995,2 49139  70.0017 288.8723 0002859 273.2266  86.8566 14.98341697 73824,6950.156999999998,96.106,574.009,570.035,0.0
49139.0,STARLINK-3057,PAYLOAD,2023-01-09 04:47:48,14.98342094,0.000285,70.0014,287.8623,273.0304,87.0529,0.00039233,4.593e-05,0.0,0 STARLINK-3057,1 49139U 21082K   23009.19986428  .00004593  00000-0  39233-3 0  9994,2 49139  70.0014 287.8623 0002850 273.0304  87.0529 14.98342094 73881,6950.155,96.106,574.001,570.04,0.0
49139.0,STARLINK-3057,PAYLOAD,2023-01-09 11:12:20,14.98341966,0.0002821,70.0017,287.1891,273.6573,86.4263,0.00031144,3.626e-05,0.0,0 STARLINK-3057,1 49139U 21082K   23009.46690281  .00003626  00000-0  31144-3 0  9992,2 49139  70.0017 287.1891 0002821 273.6573  86.4263 14.98341966 73926,6950.156,96.106,573.982,570.06,0.0
49139.0,STARLINK-3057,PAYLOAD,2023-01-09 17:36:52,14.98342025,0.0002794,70.0015,286.5159,273.4813,86.6027,0.00028699,3.334e-05,0.0,0 STARLINK-3057,1 49139U 21082K   23009.73394161  .00003334  00000-0  28699-3 0  9997,2 49139  70.0015 286.5159 0002794 273.4813  86.6027 14.98342025 73969,6950.156,96.106,573.9630000000002,570.0790000000002,0.0
49139.0,STARLINK-3057,PAYLOAD,2023-01-10 04:49:48,14.98336207,0.0002887,70.0011,285.3374,274.0196,86.0633,5.405e-05,5.52e-06,0.0,0 STARLINK-3057,1 49139U 21082K   23010.20126116  .00000552  00000-0  54050-4 0  9994,2 49139  70.0011 285.3374 0002887 274.0196  86.0633 14.98336207 74036,6950.174,96.107,574.045,570.0319999999998,0.0
49139.0,STARLINK-3057,PAYLOAD,2023-01-10 11:14:21,14.98339295,0.0002908,70.0007,284.6641,273.811,86.2717,0.00010065,1.108e-05,0.0,0 STARLINK-3057,1 49139U 21082K   23010.46829933  .00001108  00000-0  10065-3 0  9994,2 49139  70.0007 284.6641 0002908 273.8110  86.2717 14.98339295 74076,6950.164000000002,96.106,574.05,570.008,0.0
49139.0,STARLINK-3057,PAYLOAD,2023-01-10 17:38:53,14.98332913,0.0002515,69.9996,283.9918,274.5545,85.5327,0.00016841,1.917e-05,0.0,0 STARLINK-3057,1 49139U 21082K   23010.73534220  .00001917  00000-0  16841-3 0  9992,2 49139  69.9996 283.9918 0002515 274.5545  85.5327 14.98332913 74117,6950.184,96.107,573.797,570.3009999999998,0.0
49139.0,STARLINK-3057,PAYLOAD,2023-01-11 11:16:20,14.98354689,0.0003456,70.0003,282.141,268.2381,91.8382,-5.5714e-05,-7.58e-06,0.0,0 STARLINK-3057,1 49139U 21082K   23011.46968511 -.00000758  00000-0 -55714-4 0  9994,2 49139  70.0003 282.1410 0003456 268.2381  91.8382 14.98354689 74227,6950.116999999998,96.105,574.384,569.58,0.0
49139.0,STARLINK-3057,PAYLOAD,2023-01-11 20:53:09,14.98341283,0.0003245,70.0001,281.1293,269.6364,90.4423,0.00019841,2.276e-05,0.0,0 STARLINK-3057,1 49139U 21082K   23011.87025202  .00002276  00000-0  19841-3 0  9995,2 49139  70.0001 281.1293 0003245 269.6364  90.4423 14.98341283 74288,6950.158,96.106,574.278,569.768,0.0
49139.0,STARLINK-3057,PAYLOAD,2023-01-12 03:17:42,14.98336333,0.0003013999999999,70.0,280.4568,272.8184,87.26299999999998,0.00013995,1.578e-05,0.0,0 STARLINK-3057,1 49139U 21082K   23012.13729415  .00001578  00000-0  13995-3 0  9990,2 49139  70.0000 280.4568 0003014 272.8184  87.2630 14.98336333 74323,6950.173000000002,96.107,574.133,569.944,0.0
49139.0,STARLINK-3057,PAYLOAD,2023-01-12 22:31:19,14.98322441,0.0002995,69.9997,278.4364,270.6107,89.4709,-6.3341e-05,-8.49e-06,0.0,0 STARLINK-3057,1 49139U 21082K   23012.93842345 -.00000849  00000-0 -63341-4 0  9999,2 49139  69.9997 278.4364 0002995 270.6107  89.4709 14.98322441 74443,6950.215999999999,96.107,574.163,570.0,0.0
49139.0,STARLINK-3057,PAYLOAD,2023-01-13 00:07:27,14.98327955,0.0002867,70.0008,278.2686,265.6095,94.4736,2.1332e-05,1.62e-06,0.0,0 STARLINK-3057,1 49139U 21082K   23013.00518146  .00000162  00000-0  21332-4 0  9997,2 49139  70.0008 278.2686 0002867 265.6095  94.4736 14.98327955 74454,6950.199000000001,96.107,574.057,570.072,0.0
49139.0,STARLINK-3057,PAYLOAD,2023-01-13 11:20:24,14.98323824,0.0002543,70.0014,277.091,274.5786,85.5083,-6.8223e-05,-9.07e-06,0.0,0 STARLINK-3057,1 49139U 21082K   23013.47250572 -.00000907  00000-0 -68223-4 0  9993,2 49139  70.0014 277.0910 0002543 274.5786  85.5083 14.98323824 74520,6950.212,96.107,573.844,570.31,0.0
49139.0,STARLINK-3057,PAYLOAD,2023-01-14 03:21:45,14.98328419,0.0002921999999999,69.9998,275.4062,267.2554,92.8271,0.0001375999999999,1.549e-05,0.0,0 STARLINK-3057,1 49139U 21082K   23014.14010581  .00001549  00000-0  13760-3 0  9998,2 49139  69.9998 275.4062 0002922 267.2554  92.8271 14.98328419 74627,6950.198,96.107,574.094,570.0319999999999,0.0
49139.0,STARLINK-3057,PAYLOAD,2023-01-14 19:23:06,14.98324559,0.0002998999999999,69.9998,273.7231,265.3935,94.6882,0.00020471,2.35e-05,0.0,0 STARLINK-3057,1 49139U 21082K   23014.80771133  .00002350  00000-0  20471-3 0  9996,2 49139  69.9998 273.7231 0002999 265.3935  94.6882 14.98324559 74722,6950.21,96.107,574.159,569.99,0.0
49139.0,STARLINK-3057,PAYLOAD,2023-01-15 09:48:18,14.98335516,0.0003016,69.9997,272.2082,266.9815,93.0999,0.00025669,2.972e-05,0.0,0 STARLINK-3057,1 49139U 21082K   23015.40854668  .00002972  00000-0  25669-3 0  9992,2 49139  69.9997 272.2082 0003016 266.9815  93.0999 14.98335516 74811,6950.176,96.107,574.137,569.945,0.0
49139.0,STARLINK-3057,PAYLOAD,2023-01-15 21:01:15,14.9833319,0.0002907,70.0008,271.0302,265.3651,94.7176,0.00030008,3.4899999999999995e-05,0.0,0 STARLINK-3057,1 49139U 21082K   23015.87586962  .00003490  00000-0  30008-3 0  9991,2 49139  70.0008 271.0302 0002907 265.3651  94.7176 14.98333190 74886,6950.183000000001,96.107,574.068,570.028,0.0
49139.0,STARLINK-3057,PAYLOAD,2023-01-16 09:50:19,14.98335305,0.0003166,70.0004,269.6841,265.3094,94.7704,0.00023206,2.677e-05,0.0,0 STARLINK-3057,1 49139U 21082K   23016.40994733  .00002677  00000-0  23206-3 0  9998,2 49139  70.0004 269.6841 0003166 265.3094  94.7704 14.98335305 74968,6950.176,96.107,574.242,569.841,0.0
49139.0,STARLINK-3057,PAYLOAD,2023-01-16 22:39:24,14.98317085,0.0003003,69.9998,268.3365,264.8013,95.2804,-0.00025814,-3.171e-05,0.0,0 STARLINK-3057,1 49139U 21082K   23016.94403705 -.00003171  00000-0 -25814-3 0  9990,2 49139  69.9998 268.3365 0003003 264.8013  95.2804 14.98317085 75041,6950.233,96.108,574.185,570.011,0.0
49139.0,STARLINK-3057,PAYLOAD,2023-01-17 09:52:21,14.98320494,0.0003007,70.0004,267.1581,267.5145,92.5669,4.5296e-05,4.47e-06,0.0,0 STARLINK-3057,1 49139U 21082K   23017.41136027  .00000447  00000-0  45296-4 0  9991,2 49139  70.0004 267.1581 0003007 267.5145  92.5669 14.98320494 75114,6950.222,96.108,574.177,569.997,0.0
49139.0,STARLINK-3057,PAYLOAD,2023-01-17 17:53:01,14.98329273,0.0002944,70.0005,266.3157,265.7344,94.3478,0.00041984,4.92e-05,0.0,0 STARLINK-3057,1 49139U 21082K   23017.74516045  .00004920  00000-0  41984-3 0  9998,2 49139  70.0005 266.3157 0002944 265.7344  94.3478 14.98329273 75162,6950.195,96.107,574.106,570.014,0.0
49139.0,STARLINK-3057,PAYLOAD,2023-01-18 00:17:34,14.98332932,0.0002876,70.0009,265.6426,263.6909,96.3922,0.00087404,0.00010352,0.0,0 STARLINK-3057,1 49139U 21082K   23018.01220228  .00010352  00000-0  87404-3 0  9997,2 49139  70.0009 265.6426 0002876 263.6909  96.3922 14.98332932 75202,6950.184,96.107,574.048,570.05,0.0
49139.0,STARLINK-3057,PAYLOAD,2023-01-18 09:54:22,14.98346998,0.0003005,70.0001,264.6329,266.9803,93.1012,0.0011775,0.00013991,0.0,0 STARLINK-3057,1 49139U 21082K   23018.41275968  .00013991  00000-0  11775-2 0  9991,2 49139  70.0001 264.6329 0003005 266.9803  93.1012 14.98346998 75267,6950.14,96.106,574.094,569.9169999999999,0.0
49139.0,STARLINK-3057,PAYLOAD,2023-01-18 21:07:18,14.98346041,0.0002973,70.0001,263.4548,267.223,92.8588,0.00062517,7.377e-05,0.0,0 STARLINK-3057,1 49139U 21082K   23018.88007634  .00007377  00000-0  62517-3 0  9997,2 49139  70.0001 263.4548 0002973 267.2230  92.8588 14.98346041 75339,6950.143,96.106,574.075,569.942,0.0
49139.0,STARLINK-3057,PAYLOAD,2023-01-19 01:55:42,14.98351585,0.0002918,70.0004,262.9503,268.1052,91.9773,0.00069593,8.225e-05,0.0,0 STARLINK-3057,1 49139U 21082K   23019.08035330  .00008225  00000-0  69593-3 0  9998,2 49139  70.0004 262.9503 0002918 268.1052  91.9773 14.98351585 75366,6950.126,96.106,574.019,569.9630000000001,0.0
49139.0,STARLINK-3057,PAYLOAD,2023-01-19 22:45:27,14.98330446,0.0002177999999999,70.0024,260.7631,270.5345,89.5565,-0.00020928,-2.589e-05,0.0,0 STARLINK-3057,1 49139U 21082K   23019.94823747 -.00002589  00000-0 -20928-3 0  9998,2 49139  70.0024 260.7631 0002178 270.5345  89.5565 14.98330446 75495,6950.191999999999,96.107,573.57,570.543,0.0
